[
    {
        "Altitude(m)": 604221.1918520288,
        "Argument of Periapsis(deg)": 0.0,
        "Eccentricity": 0.0,
        "Inclination(deg)": 60.0,
        "Latitude(deg)": 14.11717471220107,
        "Longitude(deg)": -86.66584967159652,
        "Mean Anomaly(deg)": 16.3636,
        "RAAN(deg)": 5.0,
        "Satellite Name": "Test1 23",
        "Satellite Number": 23,
        "Semi-Major Axis(m)": 6980739.136638005,
        "Time(s)": 0
    },
    {
        "Altitude(m)": 604235.3323463958,
        "Argument of Periapsis(deg)": 0.00010418945913296404,
        "Eccentricity": 0.0,
        "Inclination(deg)": 60.0,
        "Latitude(deg)": 14.651571551138286,
        "Longitude(deg)": -86.37740295712713,
        "Mean Anomaly(deg)": 16.98370614546183,
        "RAAN(deg)": 4.999579950860257,
        "Satellite Name": "Test1 23",
        "Satellite Number": 23,
        "Semi-Major Axis(m)": 6980739.136638005,
        "Time(s)": 10
    }
]